{
  "type": "FeatureCollection",
  "features": [
    {
      "type": "Feature",
      "properties": {
        "norad_id": 41330,
        "name": "COSMOS 2514 (751)",
        "group": "gnss",
        "lat": -45.22754086047093,
        "lon": 167.17464163731034,
        "alt_km": 19105.160967705913,
        "timestamp": "2025-12-15T04:01:20.695627+00:00",
        "meta_object_name": "COSMOS 2514 (751)",
        "meta_object_id": "2016-008A",
        "meta_epoch": "2025-12-13T22:15:20.195712",
        "meta_mean_motion": 2.13102653,
        "meta_eccentricity": 0.00120546,
        "meta_inclination": 65.1331,
        "meta_ra_of_asc_node": 319.3632,
        "meta_arg_of_pericenter": 220.0811,
        "meta_mean_anomaly": 139.8277,
        "meta_ephemeris_type": 0,
        "meta_classification_type": "U",
        "meta_norad_cat_id": 41330,
        "meta_element_set_no": 999,
        "meta_rev_at_epoch": 7667,
        "meta_bstar": 0,
        "meta_mean_motion_dot": -6.4e-07,
        "meta_mean_motion_ddot": 0,
        "tle_line1": "1 41330U 16008A   25347.92731708 -.00000064  00000+0  00000+0 0  9993",
        "tle_line2": "2 41330  65.1331 319.3632 0012054 220.0811 139.8277  2.13102653 76671"
      },
      "geometry": {
        "type": "Point",
        "coordinates": [
          167.17464163731034,
          -45.22754086047093
        ]
      }
    },
    {
      "type": "Feature",
      "properties": {
        "norad_id": 41384,
        "name": "IRNSS-1F",
        "group": "gnss",
        "lat": 4.721365270665707,
        "lon": 176.48099437783813,
        "alt_km": 35810.03726567024,
        "timestamp": "2025-12-15T04:01:20.695638+00:00",
        "meta_object_name": "IRNSS-1F",
        "meta_object_id": "2016-015A",
        "meta_epoch": "2025-12-14T01:35:13.316640",
        "meta_mean_motion": 1.00273232,
        "meta_eccentricity": 0.00225765,
        "meta_inclination": 4.8841,
        "meta_ra_of_asc_node": 101.2672,
        "meta_arg_of_pericenter": 180.8191,
        "meta_mean_anomaly": 217.0753,
        "meta_ephemeris_type": 0,
        "meta_classification_type": "U",
        "meta_norad_cat_id": 41384,
        "meta_element_set_no": 999,
        "meta_rev_at_epoch": 3581,
        "meta_bstar": 0,
        "meta_mean_motion_dot": 1.75e-06,
        "meta_mean_motion_ddot": 0,
        "tle_line1": "1 41384U 16015A   25348.06612635  .00000175  00000+0  00000+0 0  9995",
        "tle_line2": "2 41384   4.8841 101.2672 0022576 180.8191 217.0753  1.00273232 35818"
      },
      "geometry": {
        "type": "Point",
        "coordinates": [
          176.48099437783813,
          4.721365270665707
        ]
      }
    },
    {
      "type": "Feature",
      "properties": {
        "norad_id": 41434,
        "name": "BEIDOU-2 IGSO-6 (C13)",
        "group": "gnss",
        "lat": -14.856952415319471,
        "lon": -131.27856283517963,
        "alt_km": 35565.89631416191,
        "timestamp": "2025-12-15T04:01:20.695650+00:00",
        "meta_object_name": "BEIDOU-2 IGSO-6 (C13)",
        "meta_object_id": "2016-021A",
        "meta_epoch": "2025-12-11T15:29:12.615360",
        "meta_mean_motion": 1.00293077,
        "meta_eccentricity": 0.00608616,
        "meta_inclination": 59.9644,
        "meta_ra_of_asc_node": 39.9082,
        "meta_arg_of_pericenter": 229.9753,
        "meta_mean_anomaly": 135.9177,
        "meta_ephemeris_type": 0,
        "meta_classification_type": "U",
        "meta_norad_cat_id": 41434,
        "meta_element_set_no": 999,
        "meta_rev_at_epoch": 3560,
        "meta_bstar": 0,
        "meta_mean_motion_dot": -1.62e-06,
        "meta_mean_motion_ddot": 0,
        "tle_line1": "1 41434U 16021A   25345.64528490 -.00000162  00000+0  00000+0 0  9991",
        "tle_line2": "2 41434  59.9644  39.9082 0060861 229.9753 135.9177  1.00293077 35600"
      },
      "geometry": {
        "type": "Point",
        "coordinates": [
          -131.27856283517963,
          -14.856952415319471
        ]
      }
    },
    {
      "type": "Feature",
      "properties": {
        "norad_id": 41469,
        "name": "IRNSS-1G",
        "group": "gnss",
        "lat": 0.6557320032410239,
        "lon": -86.17767449235171,
        "alt_km": 35794.37681959745,
        "timestamp": "2025-12-15T04:01:20.695663+00:00",
        "meta_object_name": "IRNSS-1G",
        "meta_object_id": "2016-027A",
        "meta_epoch": "2025-12-14T07:11:03.288768",
        "meta_mean_motion": 1.0027942,
        "meta_eccentricity": 0.00025714,
        "meta_inclination": 4.7376,
        "meta_ra_of_asc_node": 102.0573,
        "meta_arg_of_pericenter": 334.2888,
        "meta_mean_anomaly": 244.0082,
        "meta_ephemeris_type": 0,
        "meta_classification_type": "U",
        "meta_norad_cat_id": 41469,
        "meta_element_set_no": 999,
        "meta_rev_at_epoch": 3532,
        "meta_bstar": 0,
        "meta_mean_motion_dot": -3.17e-06,
        "meta_mean_motion_ddot": 0,
        "tle_line1": "1 41469U 16027A   25348.29934362 -.00000317  00000+0  00000+0 0  9990",
        "tle_line2": "2 41469   4.7376 102.0573 0002571 334.2888 244.0082  1.00279420 35320"
      },
      "geometry": {
        "type": "Point",
        "coordinates": [
          -86.17767449235171,
          0.6557320032410239
        ]
      }
    },
    {
      "type": "Feature",
      "properties": {
        "norad_id": 41549,
        "name": "GSAT0211 (GALILEO 14)",
        "group": "gnss",
        "lat": -14.113339502631534,
        "lon": -143.3147113392388,
        "alt_km": 23214.410814182298,
        "timestamp": "2025-12-15T04:01:20.695675+00:00",
        "meta_object_name": "GSAT0211 (GALILEO 14)",
        "meta_object_id": "2016-030A",
        "meta_epoch": "2025-12-11T02:09:03.353760",
        "meta_mean_motion": 1.70473055,
        "meta_eccentricity": 0.00041282,
        "meta_inclination": 55.1527,
        "meta_ra_of_asc_node": 226.8689,
        "meta_arg_of_pericenter": 18.4657,
        "meta_mean_anomaly": 341.6286,
        "meta_ephemeris_type": 0,
        "meta_classification_type": "U",
        "meta_norad_cat_id": 41549,
        "meta_element_set_no": 999,
        "meta_rev_at_epoch": 5946,
        "meta_bstar": 0,
        "meta_mean_motion_dot": 9e-08,
        "meta_mean_motion_ddot": 0,
        "tle_line1": "1 41549U 16030A   25345.08962215  .00000009  00000+0  00000+0 0  9992",
        "tle_line2": "2 41549  55.1527 226.8689 0004128  18.4657 341.6286  1.70473055 59463"
      },
      "geometry": {
        "type": "Point",
        "coordinates": [
          -143.3147113392388,
          -14.113339502631534
        ]
      }
    },
    {
      "type": "Feature",
      "properties": {
        "norad_id": 41550,
        "name": "GSAT0210 (GALILEO 13)",
        "group": "gnss",
        "lat": -3.9348732926943417,
        "lon": 49.506509666530945,
        "alt_km": 23221.056882384753,
        "timestamp": "2025-12-15T04:01:20.695688+00:00",
        "meta_object_name": "GSAT0210 (GALILEO 13)",
        "meta_object_id": "2016-030B",
        "meta_epoch": "2025-12-13T16:38:25.135008",
        "meta_mean_motion": 1.70473753,
        "meta_eccentricity": 0.00013525,
        "meta_inclination": 55.1513,
        "meta_ra_of_asc_node": 226.7953,
        "meta_arg_of_pericenter": 245.9786,
        "meta_mean_anomaly": 114.0887,
        "meta_ephemeris_type": 0,
        "meta_classification_type": "U",
        "meta_norad_cat_id": 41550,
        "meta_element_set_no": 999,
        "meta_rev_at_epoch": 5950,
        "meta_bstar": 0,
        "meta_mean_motion_dot": 2.5e-07,
        "meta_mean_motion_ddot": 0,
        "tle_line1": "1 41550U 16030B   25347.69334647  .00000025  00000+0  00000+0 0  9993",
        "tle_line2": "2 41550  55.1513 226.7953 0001352 245.9786 114.0887  1.70473753 59508"
      },
      "geometry": {
        "type": "Point",
        "coordinates": [
          49.506509666530945,
          -3.9348732926943417
        ]
      }
    },
    {
      "type": "Feature",
      "properties": {
        "norad_id": 41586,
        "name": "BEIDOU-2 G7 (C03)",
        "group": "gnss",
        "lat": -0.23736685884450975,
        "lon": -105.22787015492155,
        "alt_km": 35806.939899103214,
        "timestamp": "2025-12-15T04:01:20.695700+00:00",
        "meta_object_name": "BEIDOU-2 G7 (C03)",
        "meta_object_id": "2016-037A",
        "meta_epoch": "2025-12-13T15:41:15.400608",
        "meta_mean_motion": 1.00266893,
        "meta_eccentricity": 0.00045907,
        "meta_inclination": 1.7596,
        "meta_ra_of_asc_node": 67.775,
        "meta_arg_of_pericenter": 358.4711,
        "meta_mean_anomaly": 2.0592,
        "meta_ephemeris_type": 0,
        "meta_classification_type": "U",
        "meta_norad_cat_id": 41586,
        "meta_element_set_no": 999,
        "meta_rev_at_epoch": 502,
        "meta_bstar": 0,
        "meta_mean_motion_dot": -3.38e-06,
        "meta_mean_motion_ddot": 0,
        "tle_line1": "1 41586U 16037A   25347.65365047 -.00000338  00000+0  00000+0 0  9991",
        "tle_line2": "2 41586   1.7596  67.7750 0004590 358.4711   2.0592  1.00266893  5023"
      },
      "geometry": {
        "type": "Point",
        "coordinates": [
          -105.22787015492155,
          -0.23736685884450975
        ]
      }
    }
  ]
}